H1 CPF 01  gfz 2022 11 28 13  8322 tandemx   
H2 1003001  6202 36605    2022 11 28 12 59 42 2022 12 03 00 00 42   120 1 1  0 0 0
H9
10 0 59914  52542.000000  0    4289812.160   4930659.288   2170313.834
10 0 59914  52662.000000  0    4198457.465   4553787.346   3006858.443
10 0 59914  52782.000000  0    4026422.182   4099595.736   3790454.092
10 0 59914  52902.000000  0    3775454.672   3577435.027   4507313.618
10 0 59914  53022.000000  0    3448864.090   2997804.081   5144837.354
10 0 59914  53142.000000  0    3051474.475   2372133.632   5691837.105
10 0 59914  53262.000000  0    2589548.690   1712554.765   6138726.901
10 0 59914  53382.000000  0    2070686.646   1031660.036   6477685.842
10 0 59914  53502.000000  0    1503696.486    342260.442   6702788.484
10 0 59914  53622.000000  0     898442.391   -342854.765   6810102.606
10 0 59914  53742.000000  0     265671.855  -1011154.970   6797755.098
10 0 59914  53862.000000  0    -383175.631  -1650597.689   6665962.362
10 0 59914  53982.000000  0   -1036175.447  -2249845.450   6417026.142
10 0 59914  54102.000000  0   -1681135.992  -2798466.806   6055294.193
10 0 59914  54222.000000  0   -2305823.705  -3287118.295   5587089.385
10 0 59914  54342.000000  0   -2898195.575  -3707707.161   5020607.407
10 0 59914  54462.000000  0   -3446635.626  -4053530.524   4365779.618
10 0 59914  54582.000000  0   -3940186.875  -4319386.609   3634102.267
10 0 59914  54702.000000  0   -4368773.679  -4501656.870   2838436.806
10 0 59914  54822.000000  0   -4723411.226  -4598357.601   1992784.525
10 0 59914  54942.000000  0   -4996397.651  -4609158.912   1112036.811
10 0 59914  55062.000000  0   -5181482.407  -4535369.227    211706.894
10 0 59914  55182.000000  0   -5274007.103  -4379886.434   -692351.248
10 0 59914  55302.000000  0   -5271014.912  -4147116.664  -1584231.470
10 0 59914  55422.000000  0   -5171324.728  -3842861.747  -2448265.058
10 0 59914  55542.000000  0   -4975568.089  -3474178.950  -3269302.610
10 0 59914  55662.000000  0   -4686189.881  -3049218.368  -4032982.619
10 0 59914  55782.000000  0   -4307413.761  -2577041.956  -4725982.470
10 0 59914  55902.000000  0   -3845172.648  -2067428.505  -5336247.062
10 0 59914  56022.000000  0   -3307007.284  -1530669.855  -5853191.154
10 0 59914  56142.000000  0   -2701935.909   -977362.496  -6267873.086
10 0 59914  56262.000000  0   -2040297.663   -418199.349  -6573138.323
10 0 59914  56382.000000  0   -1333572.464    136234.032  -6763730.955
10 0 59914  56502.000000  0    -594183.036    675654.775  -6836373.080
10 0 59914  56622.000000  0     164718.986   1190268.341  -6789815.193
10 0 59914  56742.000000  0     929480.434   1670941.206  -6624855.227
10 0 59914  56862.000000  0    1686186.454   2109359.341  -6344328.910
10 0 59914  56982.000000  0    2420908.694   2498170.418  -5953066.040
10 0 59914  57102.000000  0    3119958.025   2831106.917  -5457815.669
10 0 59914  57222.000000  0    3770136.537   3103087.883  -4867140.111
10 0 59914  57342.000000  0    4358988.096   3310299.606  -4191279.488
10 0 59914  57462.000000  0    4875041.682   3450251.905  -3441984.320
10 0 59914  57582.000000  0    5308040.926   3521808.188  -2632318.568
10 0 59914  57702.000000  0    5649155.149   3525189.878  -1776437.117
10 0 59914  57822.000000  0    5891167.688   3461952.923   -889338.804
10 0 59914  57942.000000  0    6028634.519   3334936.310     13399.131
10 0 59914  58062.000000  0    6058010.316   3148184.018    915900.137
10 0 59914  58182.000000  0    5977737.132   2906841.582   1802275.586
10 0 59914  58302.000000  0    5788292.447   2617031.032   2656912.968
10 0 59914  58422.000000  0    5492197.058   2285706.352   3464759.959
10 0 59914  58542.000000  0    5093980.124   1920492.574   4211596.955
10 0 59914  58662.000000  0    4600103.230   1529513.993   4884291.259
10 0 59914  58782.000000  0    4018848.918   1121215.329   5471027.648
10 0 59914  58902.000000  0    3360173.475    704180.582   5961516.439
10 0 59914  59022.000000  0    2635526.058    286953.213   6347168.467
10 0 59914  59142.000000  0    1857644.254   -122136.740   6621238.110
10 0 59914  59262.000000  0    1040327.196   -515137.310   6778936.437
10 0 59914  59382.000000  0     198187.766   -884628.435   6817510.893
10 0 59914  59502.000000  0    -653609.655  -1223861.198   6736289.270
10 0 59914  59622.000000  0   -1499621.704  -1526881.062   6536689.972
10 0 59914  59742.000000  0   -2324404.611  -1788632.269   6222197.430
10 0 59914  59862.000000  0   -3112793.950  -2005041.511   5798305.879
10 0 59914  59982.000000  0   -3850185.990  -2173082.444   5272432.000
10 0 59914  60102.000000  0   -4522813.754  -2290818.690   4653790.390
10 0 59914  60222.000000  0   -5118010.243  -2357423.411   3953236.323
10 0 59914  60342.000000  0   -5624453.931  -2373174.477   3183078.103
10 0 59914  60462.000000  0   -6032392.065  -2339426.268   2356862.811
10 0 59914  60582.000000  0   -6333837.846  -2258559.657   1489137.468
10 0 59914  60702.000000  0   -6522735.356  -2133909.584    595186.757
10 0 59914  60822.000000  0   -6595084.535  -1969671.236   -309243.863
10 0 59914  60942.000000  0   -6549026.894  -1770788.087  -1208234.425
10 0 59914  61062.000000  0   -6384886.414  -1542824.679  -2085980.192
10 0 59914  61182.000000  0   -6105166.245  -1291827.900  -2927076.869
10 0 59914  61302.000000  0   -5714502.157  -1024180.369  -3716795.706
10 0 59914  61422.000000  0   -5219574.714   -746449.266  -4441343.123
10 0 59914  61542.000000  0   -4628982.780   -465234.275  -5088099.708
10 0 59914  61662.000000  0   -3953081.678   -187018.995  -5645834.365
10 0 59914  61782.000000  0   -3203790.486     81971.009  -6104890.136
10 0 59914  61902.000000  0   -2394374.431    335900.667  -6457339.238
10 0 59914  62022.000000  0   -1539207.132    569445.167  -6697108.251
10 0 59914  62142.000000  0    -653515.647    777895.602  -6820072.270
10 0 59914  62262.000000  0     246886.162    957250.108  -6824116.950
10 0 59914  62382.000000  0    1145871.876   1104287.375  -6709170.931
10 0 59914  62502.000000  0    2027284.831   1216622.949  -6477209.674
10 0 59914  62622.000000  0    2875222.932   1292747.862  -6132225.161
10 0 59914  62742.000000  0    3674321.308   1332047.954  -5680163.542
10 0 59914  62862.000000  0    4410027.582   1334803.758  -5128832.430
10 0 59914  62982.000000  0    5068868.894   1302171.475  -4487778.440
10 0 59914  63102.000000  0    5638704.654   1236145.006  -3768132.399
10 0 59914  63222.000000  0    6108958.561   1139499.148  -2982425.176
10 0 59914  63342.000000  0    6470826.042   1015714.953  -2144376.624
10 0 59914  63462.000000  0    6717452.289    868889.076  -1268658.705
10 0 59914  63582.000000  0    6844073.986    703628.130   -370636.704
10 0 59914  63702.000000  0    6848120.208    524931.087    533905.269
10 0 59914  63822.000000  0    6729270.983    338063.191   1429048.085
10 0 59914  63942.000000  0    6489471.758    148422.621   2299026.682
10 0 59914  64062.000000  0    6132900.290    -38594.876   3128517.414
10 0 59914  64182.000000  0    5665888.721   -217731.058   3902915.507
10 0 59914  64302.000000  0    5096802.586   -383994.812   4608596.592
10 0 59914  64422.000000  0    4435882.759   -532784.553   5233159.453
10 0 59914  64542.000000  0    3695049.474   -660000.587   5765643.610
10 0 59914  64662.000000  0    2887677.898   -762143.183   6196717.310
10 0 59914  64782.000000  0    2028349.417   -836396.016   6518835.814
10 0 59914  64902.000000  0    1132583.832   -880693.008   6726368.238
10 0 59914  65022.000000  0     216554.994   -893767.501   6815690.930
10 0 59914  65142.000000  0    -703202.383   -875182.364   6785245.465
10 0 59914  65262.000000  0   -1610090.180   -825341.385   6635563.246
10 0 59914  65382.000000  0   -2487744.941   -745480.809   6369256.394
10 0 59914  65502.000000  0   -3320331.758   -637641.618   5990975.602
10 0 59914  65622.000000  0   -4092831.712   -504622.851   5507335.353
10 0 59914  65742.000000  0   -4791317.894   -349917.356   4926804.884
10 0 59914  65862.000000  0   -5403213.684   -177630.442   4259565.016
10 0 59914  65982.000000  0   -5917527.755      7616.800   3517333.259
10 0 59914  66102.000000  0   -6325060.443    200797.776   2713160.311
10 0 59914  66222.000000  0   -6618578.835    396602.217   1861200.745
10 0 59914  66342.000000  0   -6792954.560    589566.270    976460.069
10 0 59914  66462.000000  0   -6845260.470    774207.240     74523.669
10 0 59914  66582.000000  0   -6774822.743    945160.333   -828726.743
10 0 59914  66702.000000  0   -6583226.331   1097313.389  -1717402.065
10 0 59914  66822.000000  0   -6274275.729   1225935.813  -2575892.211
10 0 59914  66942.000000  0   -5853913.638   1326800.169  -3389147.612
10 0 59914  67062.000000  0   -5330094.172   1396291.211  -4142947.820
10 0 59914  67182.000000  0   -4712619.112   1431500.345  -4824148.948
10 0 59914  67302.000000  0   -4012942.002   1430303.969  -5420908.002
10 0 59914  67422.000000  0   -3243945.346   1391423.958  -5922879.922
10 0 59914  67542.000000  0   -2419696.718   1314468.942  -6321386.552
10 0 59914  67662.000000  0   -1555187.807   1199956.488  -6609555.558
10 0 59914  67782.000000  0    -666061.169   1049316.285  -6782426.945
10 0 59914  67902.000000  0     231668.252    864873.441  -6837028.025
10 0 59914  68022.000000  0    1121893.461    649813.606  -6772419.351
10 0 59914  68142.000000  0    1988698.206    408128.975  -6589711.451
10 0 59914  68262.000000  0    2816635.578    144546.243  -6292047.143
10 0 59914  68382.000000  0    3590998.734   -135561.823  -5884553.503
10 0 59914  68502.000000  0    4298079.383   -426281.339  -5374261.474
10 0 59914  68622.000000  0    4925410.964   -721276.077  -4769996.581
10 0 59914  68742.000000  0    5461994.854  -1013919.295  -4082238.151
10 0 59914  68862.000000  0    5898501.803  -1297435.572  -3322947.270
10 0 59914  68982.000000  0    6227445.089  -1565050.252  -2505366.456
99
